[
    {
        "Altitude(m)": 704725.3221653054,
        "Argument of Periapsis(deg)": 0.005695060593313534,
        "Eccentricity": 0.0,
        "Inclination(deg)": 45.0,
        "Latitude(deg)": -7.570181670695984,
        "Longitude(deg)": -117.96734615068965,
        "Mean Anomaly(deg)": -10.596991676259599,
        "RAAN(deg)": 349.9946240292709,
        "Satellite Name": "Constellation 1 1561",
        "Satellite Number": 1561,
        "Semi-Major Axis(m)": 7083131.272910544,
        "Time(s)": 95
    },
    {
        "Altitude(m)": 704716.2780049515,
        "Argument of Periapsis(deg)": 0.00575500859955894,
        "Eccentricity": 0.0,
        "Inclination(deg)": 45.0,
        "Latitude(deg)": -7.527364038536683,
        "Longitude(deg)": -117.9278639810373,
        "Mean Anomaly(deg)": -10.536290536009712,
        "RAAN(deg)": 349.99456744010536,
        "Satellite Name": "Constellation 1 1561",
        "Satellite Number": 1561,
        "Semi-Major Axis(m)": 7083131.272910544,
        "Time(s)": 96
    },
    {
        "Altitude(m)": 704707.2519767698,
        "Argument of Periapsis(deg)": 0.005814956605804345,
        "Eccentricity": 0.0,
        "Inclination(deg)": 45.0,
        "Latitude(deg)": -7.484541904345003,
        "Longitude(deg)": -117.8883901031037,
        "Mean Anomaly(deg)": -10.475589395759878,
        "RAAN(deg)": 349.9945108509398,
        "Satellite Name": "Constellation 1 1561",
        "Satellite Number": 1561,
        "Semi-Major Axis(m)": 7083131.272910544,
        "Time(s)": 97
    },
    {
        "Altitude(m)": 704698.244102956,
        "Argument of Periapsis(deg)": 0.00587490461204975,
        "Eccentricity": 0.0,
        "Inclination(deg)": 45.0,
        "Latitude(deg)": -7.441715294392366,
        "Longitude(deg)": -117.84892463514582,
        "Mean Anomaly(deg)": -10.41488825550994,
        "RAAN(deg)": 349.99445426177425,
        "Satellite Name": "Constellation 1 1561",
        "Satellite Number": 1561,
        "Semi-Major Axis(m)": 7083131.272910544,
        "Time(s)": 98
    },
    {
        "Altitude(m)": 704689.2544056405,
        "Argument of Periapsis(deg)": 0.005934852618295156,
        "Eccentricity": 0.0,
        "Inclination(deg)": 45.0,
        "Latitude(deg)": -7.398884234934785,
        "Longitude(deg)": -117.80946752734124,
        "Mean Anomaly(deg)": -10.354187115260054,
        "RAAN(deg)": 349.9943976726086,
        "Satellite Name": "Constellation 1 1561",
        "Satellite Number": 1561,
        "Semi-Major Axis(m)": 7083131.272910544,
        "Time(s)": 99
    },
    {
        "Altitude(m)": 704680.2829068553,
        "Argument of Periapsis(deg)": 0.005994800624540561,
        "Eccentricity": 0.0,
        "Inclination(deg)": 45.0,
        "Latitude(deg)": -7.356048752212515,
        "Longitude(deg)": -117.77001872988475,
        "Mean Anomaly(deg)": -10.293485975010167,
        "RAAN(deg)": 349.99434108344303,
        "Satellite Name": "Constellation 1 1561",
        "Satellite Number": 1561,
        "Semi-Major Axis(m)": 7083131.272910544,
        "Time(s)": 100
    },
    {
        "Altitude(m)": 704671.329628552,
        "Argument of Periapsis(deg)": 0.006054748630785968,
        "Eccentricity": 0.0,
        "Inclination(deg)": 45.0,
        "Latitude(deg)": -7.313208872450134,
        "Longitude(deg)": -117.73057819298884,
        "Mean Anomaly(deg)": -10.23278483476023,
        "RAAN(deg)": 349.9942844942775,
        "Satellite Name": "Constellation 1 1561",
        "Satellite Number": 1561,
        "Semi-Major Axis(m)": 7083131.272910544,
        "Time(s)": 101
    },
    {
        "Altitude(m)": 704662.3945925885,
        "Argument of Periapsis(deg)": 0.006114696637031373,
        "Eccentricity": 0.0,
        "Inclination(deg)": 45.0,
        "Latitude(deg)": -7.270364621856949,
        "Longitude(deg)": -117.69114586688332,
        "Mean Anomaly(deg)": -10.172083694510292,
        "RAAN(deg)": 349.9942279051119,
        "Satellite Name": "Constellation 1 1561",
        "Satellite Number": 1561,
        "Semi-Major Axis(m)": 7083131.272910544,
        "Time(s)": 102
    },
    {
        "Altitude(m)": 704653.4778207443,
        "Argument of Periapsis(deg)": 0.006174644643276778,
        "Eccentricity": 0.0,
        "Inclination(deg)": 45.0,
        "Latitude(deg)": -7.227516026626928,
        "Longitude(deg)": -117.65172170181522,
        "Mean Anomaly(deg)": -10.111382554260508,
        "RAAN(deg)": 349.9941713159464,
        "Satellite Name": "Constellation 1 1561",
        "Satellite Number": 1561,
        "Semi-Major Axis(m)": 7083131.272910544,
        "Time(s)": 103
    },
    {
        "Altitude(m)": 704644.5793347108,
        "Argument of Periapsis(deg)": 0.006234592649522184,
        "Eccentricity": 0.0,
        "Inclination(deg)": 45.0,
        "Latitude(deg)": -7.18466311293816,
        "Longitude(deg)": -117.61230581614564,
        "Mean Anomaly(deg)": -10.05068141401052,
        "RAAN(deg)": 349.99411472678077,
        "Satellite Name": "Constellation 1 1561",
        "Satellite Number": 1561,
        "Semi-Major Axis(m)": 7083131.272910544,
        "Time(s)": 104
    },
    {
        "Altitude(m)": 704635.6991560957,
        "Argument of Periapsis(deg)": 0.00629454065576759,
        "Eccentricity": 0.0,
        "Inclination(deg)": 45.0,
        "Latitude(deg)": -7.14180590695459,
        "Longitude(deg)": -117.57289782396174,
        "Mean Anomaly(deg)": -9.989980273760581,
        "RAAN(deg)": 349.9940581376152,
        "Satellite Name": "Constellation 1 1561",
        "Satellite Number": 1561,
        "Semi-Major Axis(m)": 7083131.272910544,
        "Time(s)": 105
    },
    {
        "Altitude(m)": 704626.8373064108,
        "Argument of Periapsis(deg)": 0.006354488662012995,
        "Eccentricity": 0.0,
        "Inclination(deg)": 45.0,
        "Latitude(deg)": -7.098944434824384,
        "Longitude(deg)": -117.53349784365878,
        "Mean Anomaly(deg)": -9.929279133510747,
        "RAAN(deg)": 349.99400154844966,
        "Satellite Name": "Constellation 1 1561",
        "Satellite Number": 1561,
        "Semi-Major Axis(m)": 7083131.272910544,
        "Time(s)": 106
    },
    {
        "Altitude(m)": 704617.9938070957,
        "Argument of Periapsis(deg)": 0.006414436668258401,
        "Eccentricity": 0.0,
        "Inclination(deg)": 45.0,
        "Latitude(deg)": -7.05607872268078,
        "Longitude(deg)": -117.49410582555169,
        "Mean Anomaly(deg)": -9.868577993260859,
        "RAAN(deg)": 349.9939449592841,
        "Satellite Name": "Constellation 1 1561",
        "Satellite Number": 1561,
        "Semi-Major Axis(m)": 7083131.272910544,
        "Time(s)": 107
    },
    {
        "Altitude(m)": 704609.1686794908,
        "Argument of Periapsis(deg)": 0.0064743846745038075,
        "Eccentricity": 0.0,
        "Inclination(deg)": 45.0,
        "Latitude(deg)": -7.013208796642132,
        "Longitude(deg)": -117.45472171997234,
        "Mean Anomaly(deg)": -9.807876853010923,
        "RAAN(deg)": 349.99388837011855,
        "Satellite Name": "Constellation 1 1561",
        "Satellite Number": 1561,
        "Semi-Major Axis(m)": 7083131.272910544,
        "Time(s)": 108
    },
    {
        "Altitude(m)": 704600.3619448608,
        "Argument of Periapsis(deg)": 0.0065343326807492125,
        "Eccentricity": 0.0,
        "Inclination(deg)": 45.0,
        "Latitude(deg)": -6.970334682812126,
        "Longitude(deg)": -117.41534547726913,
        "Mean Anomaly(deg)": -9.747175712760987,
        "RAAN(deg)": 349.9938317809529,
        "Satellite Name": "Constellation 1 1561",
        "Satellite Number": 1561,
        "Semi-Major Axis(m)": 7083131.272910544,
        "Time(s)": 109
    },
    {
        "Altitude(m)": 704591.5736243782,
        "Argument of Periapsis(deg)": 0.0065942806869946176,
        "Eccentricity": 0.0,
        "Inclination(deg)": 45.0,
        "Latitude(deg)": -6.927456407279786,
        "Longitude(deg)": -117.3759770478073,
        "Mean Anomaly(deg)": -9.68647457251115,
        "RAAN(deg)": 349.99377519178734,
        "Satellite Name": "Constellation 1 1561",
        "Satellite Number": 1561,
        "Semi-Major Axis(m)": 7083131.272910544,
        "Time(s)": 110
    },
    {
        "Altitude(m)": 704582.8037391239,
        "Argument of Periapsis(deg)": 0.006654228693240024,
        "Eccentricity": 0.0,
        "Inclination(deg)": 45.0,
        "Latitude(deg)": -6.884573996119044,
        "Longitude(deg)": -117.33661655006516,
        "Mean Anomaly(deg)": -9.625773432261212,
        "RAAN(deg)": 349.9937186026218,
        "Satellite Name": "Constellation 1 1561",
        "Satellite Number": 1561,
        "Semi-Major Axis(m)": 7083131.272910544,
        "Time(s)": 111
    },
    {
        "Altitude(m)": 704574.0523101019,
        "Argument of Periapsis(deg)": 0.006714176699485429,
        "Eccentricity": 0.0,
        "Inclination(deg)": 45.0,
        "Latitude(deg)": -6.84168747539014,
        "Longitude(deg)": -117.29726359824672,
        "Mean Anomaly(deg)": -9.565072292011275,
        "RAAN(deg)": 349.99366201345623,
        "Satellite Name": "Constellation 1 1561",
        "Satellite Number": 1561,
        "Semi-Major Axis(m)": 7083131.272910544,
        "Time(s)": 112
    },
    {
        "Altitude(m)": 704565.3193582272,
        "Argument of Periapsis(deg)": 0.006774124705730835,
        "Eccentricity": 0.0,
        "Inclination(deg)": 45.0,
        "Latitude(deg)": -6.798796871138364,
        "Longitude(deg)": -117.25791831086316,
        "Mean Anomaly(deg)": -9.50437115176144,
        "RAAN(deg)": 349.99360542429065,
        "Satellite Name": "Constellation 1 1561",
        "Satellite Number": 1561,
        "Semi-Major Axis(m)": 7083131.272910544,
        "Time(s)": 113
    }
]